{
  "type": "FeatureCollection",
  "features": [
    {
      "type": "Feature",
      "properties": {
        "norad_id": 42988,
        "name": "SKYSAT-C10",
        "group": "resource",
        "lat": -38.555413129750704,
        "lon": 119.54606059985758,
        "alt_km": 479.8279011912464,
        "timestamp": "2025-12-08T17:43:04.551587+00:00",
        "meta_object_name": "SKYSAT-C10",
        "meta_object_id": "2017-068B",
        "meta_epoch": "2025-12-08T06:54:50.547456",
        "meta_mean_motion": 15.31917321,
        "meta_eccentricity": 0.0005308,
        "meta_inclination": 97.4263,
        "meta_ra_of_asc_node": 113.1276,
        "meta_arg_of_pericenter": 116.1008,
        "meta_mean_anomaly": 244.0781,
        "meta_ephemeris_type": 0,
        "meta_classification_type": "U",
        "meta_norad_cat_id": 42988,
        "meta_element_set_no": 999,
        "meta_rev_at_epoch": 45311,
        "meta_bstar": 0.00045358189,
        "meta_mean_motion_dot": 0.00013915,
        "meta_mean_motion_ddot": 0,
        "tle_line1": "1 42988U 17068B   25342.28808504  .00013915  00000+0  45358-3 0  9990",
        "tle_line2": "2 42988  97.4263 113.1276 0005308 116.1008 244.0781 15.31917321453111"
      },
      "geometry": {
        "type": "Point",
        "coordinates": [
          119.54606059985758,
          -38.555413129750704
        ]
      }
    },
    {
      "type": "Feature",
      "properties": {
        "norad_id": 42989,
        "name": "SKYSAT-C9",
        "group": "resource",
        "lat": 67.19502602825195,
        "lon": -48.98407986691103,
        "alt_km": 444.5772385770788,
        "timestamp": "2025-12-08T17:43:04.551597+00:00",
        "meta_object_name": "SKYSAT-C9",
        "meta_object_id": "2017-068C",
        "meta_epoch": "2025-12-08T07:51:09.642816",
        "meta_mean_motion": 15.35879402,
        "meta_eccentricity": 0.0010689,
        "meta_inclination": 97.4193,
        "meta_ra_of_asc_node": 112.5471,
        "meta_arg_of_pericenter": 101.9087,
        "meta_mean_anomaly": 258.3356,
        "meta_ephemeris_type": 0,
        "meta_classification_type": "U",
        "meta_norad_cat_id": 42989,
        "meta_element_set_no": 999,
        "meta_rev_at_epoch": 45340,
        "meta_bstar": 0.00050697262,
        "meta_mean_motion_dot": 0.00017672,
        "meta_mean_motion_ddot": 0,
        "tle_line1": "1 42989U 17068C   25342.32719494  .00017672  00000+0  50697-3 0  9991",
        "tle_line2": "2 42989  97.4193 112.5471 0010689 101.9087 258.3356 15.35879402453400"
      },
      "geometry": {
        "type": "Point",
        "coordinates": [
          -48.98407986691103,
          67.19502602825195
        ]
      }
    },
    {
      "type": "Feature",
      "properties": {
        "norad_id": 42990,
        "name": "SKYSAT-C8",
        "group": "resource",
        "lat": 52.0346098886443,
        "lon": -57.65297253630761,
        "alt_km": 463.4331263814802,
        "timestamp": "2025-12-08T17:43:04.551608+00:00",
        "meta_object_name": "SKYSAT-C8",
        "meta_object_id": "2017-068D",
        "meta_epoch": "2025-12-08T07:45:49.936896",
        "meta_mean_motion": 15.32770778,
        "meta_eccentricity": 0.00018969,
        "meta_inclination": 97.4284,
        "meta_ra_of_asc_node": 112.3052,
        "meta_arg_of_pericenter": 5.8812,
        "meta_mean_anomaly": 354.2452,
        "meta_ephemeris_type": 0,
        "meta_classification_type": "U",
        "meta_norad_cat_id": 42990,
        "meta_element_set_no": 999,
        "meta_rev_at_epoch": 45303,
        "meta_bstar": 0.00046704151,
        "meta_mean_motion_dot": 0.00014715,
        "meta_mean_motion_ddot": 0,
        "tle_line1": "1 42990U 17068D   25342.32349464  .00014715  00000+0  46704-3 0  9998",
        "tle_line2": "2 42990  97.4284 112.3052 0001896   5.8812 354.2452 15.32770778453039"
      },
      "geometry": {
        "type": "Point",
        "coordinates": [
          -57.65297253630761,
          52.0346098886443
        ]
      }
    },
    {
      "type": "Feature",
      "properties": {
        "norad_id": 42991,
        "name": "SKYSAT-C7",
        "group": "resource",
        "lat": -8.917279322459372,
        "lon": 114.93943330379024,
        "alt_km": 472.3778439474736,
        "timestamp": "2025-12-08T17:43:04.551619+00:00",
        "meta_object_name": "SKYSAT-C7",
        "meta_object_id": "2017-068E",
        "meta_epoch": "2025-12-08T06:47:06.898272",
        "meta_mean_motion": 15.32177473,
        "meta_eccentricity": 0.00078384,
        "meta_inclination": 97.4292,
        "meta_ra_of_asc_node": 113.3093,
        "meta_arg_of_pericenter": 71.0846,
        "meta_mean_anomaly": 289.1245,
        "meta_ephemeris_type": 0,
        "meta_classification_type": "U",
        "meta_norad_cat_id": 42991,
        "meta_element_set_no": 999,
        "meta_rev_at_epoch": 45309,
        "meta_bstar": 0.00044850631,
        "meta_mean_motion_dot": 0.00013878,
        "meta_mean_motion_ddot": 0,
        "tle_line1": "1 42991U 17068E   25342.28271873  .00013878  00000+0  44851-3 0  9992",
        "tle_line2": "2 42991  97.4292 113.3093 0007838  71.0846 289.1245 15.32177473453094"
      },
      "geometry": {
        "type": "Point",
        "coordinates": [
          114.93943330379024,
          -8.917279322459372
        ]
      }
    },
    {
      "type": "Feature",
      "properties": {
        "norad_id": 42992,
        "name": "SKYSAT-C6",
        "group": "resource",
        "lat": 58.96409123693278,
        "lon": -53.261727294944635,
        "alt_km": 462.9344678454854,
        "timestamp": "2025-12-08T17:43:04.551629+00:00",
        "meta_object_name": "SKYSAT-C6",
        "meta_object_id": "2017-068F",
        "meta_epoch": "2025-12-08T07:47:09.204576",
        "meta_mean_motion": 15.31348502,
        "meta_eccentricity": 0.00052118,
        "meta_inclination": 97.4325,
        "meta_ra_of_asc_node": 113.7931,
        "meta_arg_of_pericenter": 93.7557,
        "meta_mean_anomaly": 266.428,
        "meta_ephemeris_type": 0,
        "meta_classification_type": "U",
        "meta_norad_cat_id": 42992,
        "meta_element_set_no": 999,
        "meta_rev_at_epoch": 45308,
        "meta_bstar": 0.00046859043,
        "meta_mean_motion_dot": 0.00014126,
        "meta_mean_motion_ddot": 0,
        "tle_line1": "1 42992U 17068F   25342.32441209  .00014126  00000+0  46859-3 0  9997",
        "tle_line2": "2 42992  97.4325 113.7931 0005211  93.7557 266.4280 15.31348502453088"
      },
      "geometry": {
        "type": "Point",
        "coordinates": [
          -53.261727294944635,
          58.96409123693278
        ]
      }
    },
    {
      "type": "Feature",
      "properties": {
        "norad_id": 43111,
        "name": "CARTOSAT-2F",
        "group": "resource",
        "lat": 41.21632205450011,
        "lon": 33.874821645078676,
        "alt_km": 505.0711679185979,
        "timestamp": "2025-12-08T17:43:04.551640+00:00",
        "meta_object_name": "CARTOSAT-2F",
        "meta_object_id": "2018-004A",
        "meta_epoch": "2025-12-08T06:28:11.191872",
        "meta_mean_motion": 15.19205555,
        "meta_eccentricity": 6.955e-05,
        "meta_inclination": 97.4318,
        "meta_ra_of_asc_node": 39.9792,
        "meta_arg_of_pericenter": 142.5406,
        "meta_mean_anomaly": 217.5877,
        "meta_ephemeris_type": 0,
        "meta_classification_type": "U",
        "meta_norad_cat_id": 43111,
        "meta_element_set_no": 999,
        "meta_rev_at_epoch": 43834,
        "meta_bstar": 0.00031457289,
        "meta_mean_motion_dot": 6.555e-05,
        "meta_mean_motion_ddot": 0,
        "tle_line1": "1 43111U 18004A   25342.26957398  .00006555  00000+0  31457-3 0  9991",
        "tle_line2": "2 43111  97.4318  39.9792 0000695 142.5406 217.5877 15.19205555438342"
      },
      "geometry": {
        "type": "Point",
        "coordinates": [
          33.874821645078676,
          41.21632205450011
        ]
      }
    },
    {
      "type": "Feature",
      "properties": {
        "norad_id": 43259,
        "name": "GAOFEN-1 02",
        "group": "resource",
        "lat": 62.165396994652184,
        "lon": 24.915823318006144,
        "alt_km": 635.4315709545153,
        "timestamp": "2025-12-08T17:43:04.551650+00:00",
        "meta_object_name": "GAOFEN-1 02",
        "meta_object_id": "2018-031A",
        "meta_epoch": "2025-12-08T06:02:48.884352",
        "meta_mean_motion": 14.76466987,
        "meta_eccentricity": 0.00014649,
        "meta_inclination": 98.0813,
        "meta_ra_of_asc_node": 40.0395,
        "meta_arg_of_pericenter": 229.9496,
        "meta_mean_anomaly": 130.1585,
        "meta_ephemeris_type": 0,
        "meta_classification_type": "U",
        "meta_norad_cat_id": 43259,
        "meta_element_set_no": 999,
        "meta_rev_at_epoch": 41452,
        "meta_bstar": 0.00027767766,
        "meta_mean_motion_dot": 1.881e-05,
        "meta_mean_motion_ddot": 0,
        "tle_line1": "1 43259U 18031A   25342.25195468  .00001881  00000+0  27768-3 0  9992",
        "tle_line2": "2 43259  98.0813  40.0395 0001464 229.9496 130.1585 14.76466987414528"
      },
      "geometry": {
        "type": "Point",
        "coordinates": [
          24.915823318006144,
          62.165396994652184
        ]
      }
    }
  ]
}